[ {"OBJECT_NAME": "NUSAT-6 (HYPATIA)", "NORAD_CAT_ID": 46272, "MEAN_MOTION": 16.40036993, "ECCENTRICITY": 0.0013029, "INCLINATION": 97.2026, "RA_OF_ASC_NODE": 336.2175, "ARG_OF_PERICENTER": 264.7707, "MEAN_ANOMALY": 95.2106, "BSTAR": 0.00055612, "EPOCH": "2024-09-13T16:58:59"}, {"OBJECT_NAME": "USA 81", "NORAD_CAT_ID": 21949, "MEAN_MOTION": 14.32379743, "ECCENTRICITY": 0.0001249, "INCLINATION": 85.0033, "RA_OF_ASC_NODE": 110.8128, "ARG_OF_PERICENTER": 82.952, "MEAN_ANOMALY": 277.1815, "BSTAR": 4.3668e-05, "EPOCH": "2026-04-14T10:13:09"}, {"OBJECT_NAME": "NUSAT-30 (MARGHERITA)", "NORAD_CAT_ID": 52748, "MEAN_MOTION": 15.33279948, "ECCENTRICITY": 0.0004724, "INCLINATION": 97.3976, "RA_OF_ASC_NODE": 115.5247, "ARG_OF_PERICENTER": 320.9799, "MEAN_ANOMALY": 39.1102, "BSTAR": 0.0007259600000000001, "EPOCH": "2023-12-28T11:13:30"}, {"OBJECT_NAME": "NUSAT-22 (SOFYA)", "NORAD_CAT_ID": 48919, "MEAN_MOTION": 16.33088873, "ECCENTRICITY": 0.0008363, "INCLINATION": 97.3877, "RA_OF_ASC_NODE": 137.7655, "ARG_OF_PERICENTER": 280.5943, "MEAN_ANOMALY": 79.441, "BSTAR": 0.0009588999999999999, "EPOCH": "2023-12-14T16:57:36"}, {"OBJECT_NAME": "MUSAT-2", "NORAD_CAT_ID": 59099, "MEAN_MOTION": 15.07798783, "ECCENTRICITY": 0.0007435, "INCLINATION": 97.8502, "RA_OF_ASC_NODE": 241.8692, "ARG_OF_PERICENTER": 179.8245, "MEAN_ANOMALY": 180.2986, "BSTAR": 0.00022557, "EPOCH": "2026-04-14T15:07:20"}, {"OBJECT_NAME": "CHUBUSAT-2", "NORAD_CAT_ID": 41338, "MEAN_MOTION": 15.20243403, "ECCENTRICITY": 0.0008464, "INCLINATION": 30.9992, "RA_OF_ASC_NODE": 19.3107, "ARG_OF_PERICENTER": 148.7146, "MEAN_ANOMALY": 211.4, "BSTAR": 0.000157, "EPOCH": "2026-04-14T11:18:00"}, {"OBJECT_NAME": "CHUBUSAT-3", "NORAD_CAT_ID": 41339, "MEAN_MOTION": 15.18033082, "ECCENTRICITY": 0.0008852, "INCLINATION": 31.0055, "RA_OF_ASC_NODE": 29.3582, "ARG_OF_PERICENTER": 134.7631, "MEAN_ANOMALY": 225.3731, "BSTAR": 0.00014498, "EPOCH": "2026-04-14T04:08:40"}, {"OBJECT_NAME": "O/OREOS (USA 219)", "NORAD_CAT_ID": 37224, "MEAN_MOTION": 14.93487854, "ECCENTRICITY": 0.0015103, "INCLINATION": 71.97, "RA_OF_ASC_NODE": 224.7135, "ARG_OF_PERICENTER": 195.3272, "MEAN_ANOMALY": 164.7443, "BSTAR": 0.00014568, "EPOCH": "2026-04-14T10:26:39"}, {"OBJECT_NAME": "DMSP 5D-3 F16 (USA 172)", "NORAD_CAT_ID": 28054, "MEAN_MOTION": 14.14474847, "ECCENTRICITY": 0.0006477, "INCLINATION": 98.9947, "RA_OF_ASC_NODE": 127.9843, "ARG_OF_PERICENTER": 335.8257, "MEAN_ANOMALY": 184.1262, "BSTAR": 3.9271000000000004e-05, "EPOCH": "2026-04-14T14:12:05"}, {"OBJECT_NAME": "UFO 11 (USA 174)", "NORAD_CAT_ID": 28117, "MEAN_MOTION": 1.00272139, "ECCENTRICITY": 0.0002964, "INCLINATION": 8.9141, "RA_OF_ASC_NODE": 34.1385, "ARG_OF_PERICENTER": 332.8535, "MEAN_ANOMALY": 26.0894, "BSTAR": 0.0, "EPOCH": "2026-04-14T07:40:38"}, {"OBJECT_NAME": "PAUSAT-1", "NORAD_CAT_ID": 62653, "MEAN_MOTION": 15.23094952, "ECCENTRICITY": 0.0002234, "INCLINATION": 97.3967, "RA_OF_ASC_NODE": 185.101, "ARG_OF_PERICENTER": 139.5863, "MEAN_ANOMALY": 220.554, "BSTAR": 0.00010252, "EPOCH": "2026-04-14T12:38:08"}, {"OBJECT_NAME": "DMSP 5D-3 F15 (USA 147)", "NORAD_CAT_ID": 25991, "MEAN_MOTION": 14.17539526, "ECCENTRICITY": 0.0010124, "INCLINATION": 99.0031, "RA_OF_ASC_NODE": 142.321, "ARG_OF_PERICENTER": 177.5986, "MEAN_ANOMALY": 354.9191, "BSTAR": 6.5178e-05, "EPOCH": "2026-04-14T13:54:07"}, {"OBJECT_NAME": "AAUSAT 3", "NORAD_CAT_ID": 39087, "MEAN_MOTION": 14.39859833, "ECCENTRICITY": 0.001225, "INCLINATION": 98.3703, "RA_OF_ASC_NODE": 289.7054, "ARG_OF_PERICENTER": 48.3095, "MEAN_ANOMALY": 311.914, "BSTAR": 0.00015098, "EPOCH": "2026-04-14T11:00:30"}, {"OBJECT_NAME": "SNUSAT-2", "NORAD_CAT_ID": 43782, "MEAN_MOTION": 15.20860892, "ECCENTRICITY": 0.0011448, "INCLINATION": 97.4126, "RA_OF_ASC_NODE": 158.7924, "ARG_OF_PERICENTER": 152.566, "MEAN_ANOMALY": 207.6183, "BSTAR": 0.00018756, "EPOCH": "2026-04-14T09:37:31"}, {"OBJECT_NAME": "LUSAT (LO-19)", "NORAD_CAT_ID": 20442, "MEAN_MOTION": 14.3410297, "ECCENTRICITY": 0.0012217, "INCLINATION": 98.8901, "RA_OF_ASC_NODE": 124.5911, "ARG_OF_PERICENTER": 37.5129, "MEAN_ANOMALY": 322.6905, "BSTAR": 4.4553e-05, "EPOCH": "2026-04-14T13:15:38"}, {"OBJECT_NAME": "DMSP 5D-3 F17 (USA 191)", "NORAD_CAT_ID": 29522, "MEAN_MOTION": 14.14980045, "ECCENTRICITY": 0.0009104, "INCLINATION": 98.7403, "RA_OF_ASC_NODE": 112.467, "ARG_OF_PERICENTER": 233.7221, "MEAN_ANOMALY": 126.3112, "BSTAR": 6.92e-05, "EPOCH": "2026-04-14T14:23:50"}, {"OBJECT_NAME": "CSO-3", "NORAD_CAT_ID": 63156, "MEAN_MOTION": 14.34022377, "ECCENTRICITY": 0.0001932, "INCLINATION": 98.606, "RA_OF_ASC_NODE": 14.3262, "ARG_OF_PERICENTER": 17.427, "MEAN_ANOMALY": 342.6981, "BSTAR": 0.00016071, "EPOCH": "2025-03-13T22:37:36"}, {"OBJECT_NAME": "JILIN-1 KUANFU 01", "NORAD_CAT_ID": 45016, "MEAN_MOTION": 15.10358034, "ECCENTRICITY": 0.0010548, "INCLINATION": 97.5055, "RA_OF_ASC_NODE": 179.7668, "ARG_OF_PERICENTER": 153.5125, "MEAN_ANOMALY": 206.6646, "BSTAR": 0.00012833, "EPOCH": "2026-04-14T13:25:23"}, {"OBJECT_NAME": "JILIN-1 GAOFEN 3B", "NORAD_CAT_ID": 46454, "MEAN_MOTION": 16.02374525, "ECCENTRICITY": 0.0004735, "INCLINATION": 97.2166, "RA_OF_ASC_NODE": 164.4013, "ARG_OF_PERICENTER": 213.6852, "MEAN_ANOMALY": 146.4127, "BSTAR": 0.00075106, "EPOCH": "2026-04-14T14:31:22"}, {"OBJECT_NAME": "JILIN-1 GAOFEN 03D48", "NORAD_CAT_ID": 54695, "MEAN_MOTION": 15.33900228, "ECCENTRICITY": 0.0005873, "INCLINATION": 97.682, "RA_OF_ASC_NODE": 271.5148, "ARG_OF_PERICENTER": 355.0588, "MEAN_ANOMALY": 5.0595, "BSTAR": 0.00019313, "EPOCH": "2026-04-14T14:54:23"}, {"OBJECT_NAME": "JILIN-1 GAOFEN 3D28", "NORAD_CAT_ID": 52445, "MEAN_MOTION": 15.65787988, "ECCENTRICITY": 0.0003158, "INCLINATION": 97.5591, "RA_OF_ASC_NODE": 213.4151, "ARG_OF_PERICENTER": 261.3852, "MEAN_ANOMALY": 98.705, "BSTAR": 0.00049047, "EPOCH": "2026-04-14T14:19:08"}, {"OBJECT_NAME": "JILIN-1 GAOFEN 03D16", "NORAD_CAT_ID": 51834, "MEAN_MOTION": 16.29530138, "ECCENTRICITY": 0.0009733, "INCLINATION": 97.3534, "RA_OF_ASC_NODE": 192.0232, "ARG_OF_PERICENTER": 271.1205, "MEAN_ANOMALY": 88.8974, "BSTAR": 0.0011271, "EPOCH": "2026-04-04T20:42:37"}, {"OBJECT_NAME": "JILIN-1 GAOFEN 03D11", "NORAD_CAT_ID": 51835, "MEAN_MOTION": 15.97973642, "ECCENTRICITY": 0.0005183, "INCLINATION": 97.3693, "RA_OF_ASC_NODE": 200.565, "ARG_OF_PERICENTER": 248.6325, "MEAN_ANOMALY": 111.4399, "BSTAR": 0.00077949, "EPOCH": "2026-04-14T12:23:50"}, {"OBJECT_NAME": "JILIN-1", "NORAD_CAT_ID": 40961, "MEAN_MOTION": 14.78057151, "ECCENTRICITY": 0.0018522, "INCLINATION": 97.6519, "RA_OF_ASC_NODE": 107.1127, "ARG_OF_PERICENTER": 108.9382, "MEAN_ANOMALY": 251.3839, "BSTAR": 6.4139e-05, "EPOCH": "2026-04-14T13:58:52"}, {"OBJECT_NAME": "JILIN-1 GAOFEN 03D15", "NORAD_CAT_ID": 51839, "MEAN_MOTION": 15.79531523, "ECCENTRICITY": 0.0001166, "INCLINATION": 97.366, "RA_OF_ASC_NODE": 197.951, "ARG_OF_PERICENTER": 217.5194, "MEAN_ANOMALY": 142.5992, "BSTAR": 0.00060643, "EPOCH": "2026-04-14T14:23:11"}, {"OBJECT_NAME": "JILIN-1 03", "NORAD_CAT_ID": 41914, "MEAN_MOTION": 15.40053268, "ECCENTRICITY": 0.0007558, "INCLINATION": 97.1977, "RA_OF_ASC_NODE": 112.6244, "ARG_OF_PERICENTER": 57.1616, "MEAN_ANOMALY": 303.0357, "BSTAR": 0.00019238, "EPOCH": "2026-04-14T13:48:12"}, {"OBJECT_NAME": "JILIN-1 GAOFEN 03D10", "NORAD_CAT_ID": 51840, "MEAN_MOTION": 15.97373631, "ECCENTRICITY": 0.0005943, "INCLINATION": 97.3619, "RA_OF_ASC_NODE": 200.3324, "ARG_OF_PERICENTER": 232.8322, "MEAN_ANOMALY": 127.2413, "BSTAR": 0.00077453, "EPOCH": "2026-04-14T08:10:32"}, {"OBJECT_NAME": "JILIN-1 GAOFEN 3G", "NORAD_CAT_ID": 46459, "MEAN_MOTION": 15.6219223, "ECCENTRICITY": 0.0009551, "INCLINATION": 97.2382, "RA_OF_ASC_NODE": 159.5435, "ARG_OF_PERICENTER": 279.2168, "MEAN_ANOMALY": 80.801, "BSTAR": 0.00038784999999999997, "EPOCH": "2026-04-14T13:46:46"}, {"OBJECT_NAME": "JILIN-1 04", "NORAD_CAT_ID": 43022, "MEAN_MOTION": 15.40854866, "ECCENTRICITY": 0.000514, "INCLINATION": 97.479, "RA_OF_ASC_NODE": 212.6294, "ARG_OF_PERICENTER": 75.2541, "MEAN_ANOMALY": 284.9275, "BSTAR": 0.00017623, "EPOCH": "2026-04-14T14:31:22"}, {"OBJECT_NAME": "JILIN-1 05", "NORAD_CAT_ID": 43023, "MEAN_MOTION": 15.32964564, "ECCENTRICITY": 0.0006703, "INCLINATION": 97.4802, "RA_OF_ASC_NODE": 209.9262, "ARG_OF_PERICENTER": 95.1724, "MEAN_ANOMALY": 265.0283, "BSTAR": 0.00011489, "EPOCH": "2026-04-14T13:26:49"}, {"OBJECT_NAME": "JILIN-1 GAOFEN 03D12", "NORAD_CAT_ID": 51841, "MEAN_MOTION": 15.800479, "ECCENTRICITY": 0.0002843, "INCLINATION": 97.3633, "RA_OF_ASC_NODE": 197.8598, "ARG_OF_PERICENTER": 233.0248, "MEAN_ANOMALY": 127.076, "BSTAR": 0.00057367, "EPOCH": "2026-04-14T14:06:57"}, {"OBJECT_NAME": "JILIN-1 GAOFEN 3H", "NORAD_CAT_ID": 46460, "MEAN_MOTION": 15.60127905, "ECCENTRICITY": 0.0007646, "INCLINATION": 97.2327, "RA_OF_ASC_NODE": 156.1673, "ARG_OF_PERICENTER": 203.7623, "MEAN_ANOMALY": 156.3282, "BSTAR": 0.00036260999999999997, "EPOCH": "2026-04-14T13:38:15"}, {"OBJECT_NAME": "JILIN-1 06", "NORAD_CAT_ID": 43024, "MEAN_MOTION": 15.3298037, "ECCENTRICITY": 0.0008477, "INCLINATION": 97.4734, "RA_OF_ASC_NODE": 207.0367, "ARG_OF_PERICENTER": 104.5335, "MEAN_ANOMALY": 255.6847, "BSTAR": 0.00011808000000000001, "EPOCH": "2026-04-14T14:16:57"}, {"OBJECT_NAME": "COSMO-SKYMED 1", "NORAD_CAT_ID": 31598, "MEAN_MOTION": 14.96797626, "ECCENTRICITY": 0.0001442, "INCLINATION": 97.888, "RA_OF_ASC_NODE": 295.8936, "ARG_OF_PERICENTER": 86.2179, "MEAN_ANOMALY": 273.9207, "BSTAR": 0.00011576, "EPOCH": "2026-04-14T13:35:24"}, {"OBJECT_NAME": "COSMO-SKYMED 2", "NORAD_CAT_ID": 32376, "MEAN_MOTION": 14.82150746, "ECCENTRICITY": 0.0001371, "INCLINATION": 97.8883, "RA_OF_ASC_NODE": 289.0851, "ARG_OF_PERICENTER": 91.2333, "MEAN_ANOMALY": 268.9037, "BSTAR": 3.9253e-05, "EPOCH": "2026-04-14T13:35:13"}, {"OBJECT_NAME": "COSMO-SKYMED 4", "NORAD_CAT_ID": 37216, "MEAN_MOTION": 14.82145476, "ECCENTRICITY": 0.0001472, "INCLINATION": 97.8885, "RA_OF_ASC_NODE": 289.0984, "ARG_OF_PERICENTER": 77.2013, "MEAN_ANOMALY": 282.9364, "BSTAR": -2.2496e-05, "EPOCH": "2026-04-14T13:53:27"}]